ES'HAIL 1               
1 39233U 13044A   22014.50862513  .00000158  00000+0  00000+0 0  9993
2 39233   0.0479  25.7250 0002170 271.1782  25.6155  1.00273530 30447
GSAT-7                  
1 39234U 13044B   22014.51830635 -.00000063  00000+0  00000+0 0  9991
2 39234   0.0178  88.6269 0009752 185.6055 100.2896  1.00272354 29136
AMOS-4                  
1 39237U 13045A   22014.51656199  .00000022  00000+0  00000+0 0  9990
2 39237   0.0440  84.4435 0002720 227.1256  53.3194  1.00271568 30769
AEHF-3 (USA 246)        
1 39256U 13050A   22014.58000563  .00000148  00000+0  00000+0 0  9991
2 39256   1.3475  68.0161 0057145 187.9432 271.7434  1.00269691 29480
ASTRA 2E                
1 39285U 13056A   22014.50923565  .00000165  00000+0  00000+0 0  9996
2 39285   0.0629 342.1342 0002157 314.2532  29.3842  1.00273571 30243
FM-6                    
1 39360U 13058A   22014.51147432 -.00000003  00000+0  00000+0 0  9996
2 39360   0.0062 350.1279 0000357 180.8030  10.9748  1.00274297 29870
RADUGA-1M 3             
1 39375U 13062A   22014.58232458  .00000168  00000+0  00000+0 0  9998
2 39375   1.8529  91.5865 0003023  61.4638 205.5469  1.00273937 29930
SES-8                   
1 39460U 13071A   22014.52249282 -.00000255  00000+0  00000+0 0  9998
2 39460   0.0562 247.3339 0000998  57.7142  92.0192  1.00271797 28232
INMARSAT 5-F1           
1 39476U 13073A   22014.51603868  .00000042  00000+0  00000+0 0  9993
2 39476   0.0186  45.1345 0000379 325.0175 352.1609  1.00272004 29395
TKSAT-1 (TUPAC KATARI)  
1 39481U 13075A   22014.51924330 -.00000180  00000+0  00000+0 0  9995
2 39481   0.0369 153.6897 0002834 145.1325 274.8496  1.00272705 29401
EXPRESS-AM5             
1 39487U 13077A   22014.60325697 -.00000266  00000+0  00000+0 0  9999
2 39487   0.0445 205.7804 0001013 206.4187  59.0222  1.00270532 30165
GSAT-14                 
1 39498U 14001A   22014.51830635 -.00000063  00000+0  00000+0 0  9997
2 39498   0.0367 281.4754 0005849 349.1744 103.8855  1.00272212 29200
THAICOM 6               
1 39500U 14002A   22014.51926576 -.00000107  00000+0  00000+0 0  9991
2 39500   0.0673 120.8808 0000764  87.0800 171.4495  1.00271588 29264
TDRS 12                 
1 39504U 14004A   22014.42358728 -.00000251  00000+0  00000+0 0  9995
2 39504   3.9999 344.7516 0001023  16.5794 224.1001  1.00267792 28082
ABS-2                   
1 39508U 14006A   22014.51848079 -.00000072  00000+0  00000+0 0  9995
2 39508   0.0181   1.0180 0003473 312.4767  62.0256  1.00271988 29091
ATHENA-FIDUS            
1 39509U 14006B   22014.51106723  .00000168  00000+0  00000+0 0  9994
2 39509   0.0182  59.4562 0001353 245.5082  30.7795  1.00273972 28886
TURKSAT 4A              
1 39522U 14007A   22014.51193942  .00000160  00000+0  00000+0 0  9991
2 39522   0.0639 264.6847 0005062  14.6738  60.8663  1.00272021 28790
EXPRESS-AT1             
1 39612U 14010A   22012.79221624  .00000091  00000+0  00000+0 0  9995
2 39612   0.0429 218.8332 0000057 246.0349 348.5807  1.00273920 28846
EXPRESS-AT2             
1 39613U 14010B   22013.95724161 -.00000267  00000+0  00000+0 0  9995
2 39613   0.0332 231.3506 0000109  84.9044 281.5824  1.00271172 28686
AMAZONAS 4A             
1 39616U 14011A   22014.49702068 -.00000238  00000+0  00000+0 0  9999
2 39616   0.1487  85.1984 0003704 215.0872 278.5905  1.00273735 28500
ASTRA 5B                
1 39617U 14011B   22014.50984618  .00000169  00000+0  00000+0 0  9997
2 39617   0.0292  11.4629 0003368 269.9816  47.5190  1.00272767 28474
IRNSS-1B                
1 39635U 14017A   22012.79195458  .00000124  00000+0  00000+0 0  9999
2 39635  29.0607 267.7015 0018870 191.5835 353.2056  1.00270063 28582
LUCH 5V                 
1 39727U 14023A   22014.52249282 -.00000254  00000+0  00000+0 0  9991
2 39727   1.1448  71.6343 0002430 260.0656  65.0166  1.00267823 28166
KAZSAT-3                
1 39728U 14023B   22014.59043885  .00000074  00000+0  00000+0 0  9999
2 39728   0.0173  99.4483 0000730 216.1271  69.4746  1.00275507 26257
EUTELSAT 3B             
1 39773U 14030A   22014.36061567  .00000034  00000+0  00000+0 0  9995
2 39773   0.0596   7.5159 0004623 214.6242  24.5682  1.00270603 27874
ASIASAT 8 (AMOS-7)      
1 40107U 14046A   22014.35922017 -.00000019  00000+0  00000+0 0  9994
2 40107   0.0520 252.3011 0002307  33.0364 313.8855  1.00272327 85950
ASIASAT 6               
1 40141U 14052A   22014.59924493 -.00000348  00000+0  00000+0 0  9990
2 40141   0.0532 268.3765 0000873  41.3254 139.9606  1.00271682 26971
OPTUS 10                
1 40146U 14054A   22014.53876958 -.00000133  00000+0  00000+0 0  9995
2 40146   0.0465 153.5002 0002968 126.7040 183.7098  1.00269941 26841
MEASAT-3B               
1 40147U 14054B   22014.30635771 -.00000227  00000+0  00000+0 0  9991
2 40147   0.0366 332.4503 0002241 351.2242 351.8326  1.00269949 26715
LUCH (OLYMP)            
1 40258U 14058A   22014.71632535  .00000064  00000+0  00000+0 0  9996
2 40258   0.0445 104.9091 0000892 212.5146 114.5445  1.00268498 26750
HIMAWARI-8              
1 40267U 14060A   22014.56091110 -.00000262  00000+0  00000+0 0  9991
2 40267   0.0300 289.2904 0000991  11.0458 156.2170  1.00270688 26570
IRNSS-1C                
1 40269U 14061A   22014.52005072 -.00000149  00000+0  00000+0 0  9996
2 40269   2.6527 136.1670 0017355  10.0697 237.9085  1.00273442 26491
INTELSAT 30 (IS-30)     
1 40271U 14062A   22014.32729222 -.00000136  00000+0  00000+0 0  9994
2 40271   0.0249  42.6089 0002047  74.6268  19.3030  1.00271012 26396
ARSAT 1                 
1 40272U 14062B   22014.49702068 -.00000245  00000+0  00000+0 0  9993
2 40272   0.0317 300.0908 0001613 348.7719 292.1688  1.00271431 26427
EXPRESS-AM6             
1 40277U 14064A   22013.86021700  .00000112  00000+0  00000+0 0  9999
2 40277   0.0443 227.1195 0000404  79.3855 169.4605  1.00272768 26478
GSAT-16                 
1 40332U 14078A   22014.51455597  .00000099  00000+0  00000+0 0  9998
2 40332   0.0122 335.8356 0002638 117.4487 260.9562  1.00273235 25913
DIRECTV 14              
1 40333U 14078B   22014.62782839 -.00000111  00000+0  00000+0 0  9999
2 40333   0.0278  91.2124 0000338 125.5388  24.0782  1.00272349 25870
YAMAL 401               
1 40345U 14082A   22014.59331409 -.00000214  00000+0  00000+0 0  9990
2 40345   0.0286 101.5741 0000548 261.6823  54.2839  1.00270169 26227
ASTRA 2G                
1 40364U 14089A   22014.50914844  .00000164  00000+0  00000+0 0  9992
2 40364   0.0287  30.7863 0002671 337.3670 317.2505  1.00272938 25774
FENGYUN 2G              
1 40367U 14090A   22014.52345223 -.00000291  00000+0  00000+0 0  9990
2 40367   1.5508  90.9234 0003067 317.1060 354.0314  1.00278107 25803
MUOS-3                  
1 40374U 15002A   22014.55172716 -.00000115  00000+0  00000+0 0  9995
2 40374   2.5345   6.7091 0054445 181.5913 108.8272  1.00270750 25391
INMARSAT 5-F2           
1 40384U 15005A   22014.50813199 -.00000271  00000+0  00000+0 0  9994
2 40384   0.0028 115.4155 0000769 191.0490 295.3757  1.00272525 24805
ABS-3A                  
1 40424U 15010A   22014.35939462 -.00000012  00000+0  00000+0 0  9993
2 40424   0.0471  82.3479 0001523 118.5987  39.2499  1.00270871 25190
EUTELSAT 115 WEST B     
1 40425U 15010B   22014.61518289 -.00000011  00000+0  00000+0 0  9992
2 40425   0.0131 148.7676 0000466 266.9604 164.8838  1.00273721 25211
EXPRESS-AM7             
1 40505U 15012A   22014.51159054  .00000165  00000+0  00000+0 0  9992
2 40505   0.0174 359.6625 0002861 280.5554  57.8933  1.00269530 24816
IRNSS-1D                
1 40547U 15018A   22013.61507785 -.00000254  00000+0  00000+0 0  9992
2 40547  28.8869 267.7360 0017560 178.7678 359.8393  1.00272933 24796
BEIDOU 17               
1 40549U 15019A   22014.23307122 -.00000190  00000+0  00000+0 0  9996
2 40549  52.1513 314.5481 0035733 191.2219 148.1202  1.00275166 24881
THOR 7                  
1 40613U 15022A   22014.28812907  .00000006  00000+0  00000+0 0  9994
2 40613   0.0101  73.9545 0002799 219.7705 283.0529  1.00271830 24624
TURKMENALEM52E/MONACOSAT
1 40617U 15023A   22014.51394544  .00000118  00000+0  00000+0 0  9991
2 40617   0.0166  63.3550 0002639 222.0228  65.6129  1.00269620 24644
DIRECTV 15              
1 40663U 15026A   22014.47148397 -.00000089  00000+0  00000+0 0  9991
2 40663   0.0201  83.2338 0000686 153.4375 304.0964  1.00279270 24278
SKY MEXICO-1            
1 40664U 15026B   22014.49702068 -.00000220  00000+0  00000+0 0  9992
2 40664   0.0128  39.0462 0002400 261.0518 273.9738  1.00272768 24262
METEOSAT-11 (MSG-4)     
1 40732U 15034A   22014.28812907  .00000008  00000+0  00000+0 0  9991
2 40732   0.2491 326.0081 0001023 117.5003 133.4943  1.00272545 23836
STAR ONE C4             
1 40733U 15034B   22014.50000000 -.00000251  00000+0  00000+0 0  9991
2 40733   0.0260  56.3580 0002942 264.3150 263.2500  1.00272251 23825
WGS F7 (USA 263)        
1 40746U 15036A   22014.60710410  .00000032  00000+0  00000+0 0  9997
2 40746   0.0403  83.3932 0000483 279.6273 144.5609  1.00271873 23697
INTELSAT 34 (IS-34)     
1 40874U 15039A   22014.50813199 -.00000271  00000+0  00000+0 0  9995
2 40874   0.0099 357.3763 0000796 215.0616  28.9199  1.00270832 23433
EUTELSAT 8 WEST B       
1 40875U 15039B   22014.43004144 -.00000051  00000+0  00000+0 0  9996
2 40875   0.0665 351.5093 0002974 344.1010 285.0723  1.00271168 23462
GSAT-6                  
1 40880U 15041A   22014.52005072 -.00000145  00000+0  00000+0 0  9990
2 40880   0.0235 286.2161 0002595 325.5219 131.9046  1.00269698 23411
INMARSAT 5-F3           
1 40882U 15042A   22014.61043587  .00000065  00000+0  00000+0 0  9996
2 40882   0.0189  48.1372 0000398 332.4596 132.7863  1.00272836 23373
MUOS-4                  
1 40887U 15044A   22014.51856801 -.00000080  00000+0  00000+0 0  9991
2 40887   2.5652   1.8052 0056134 356.1536  17.6812  1.00272503 23373
